FLOCK 4Q-15             
1 58319U 23174BR  26063.70891491  .00145488  00000+0  18459-2 0  9997
2 58319  97.3915 154.3924 0004993 165.5893 194.5507 15.58930462129693
FLOCK 4Q-2              
1 58320U 23174BS  26063.81833328  .00029866  00000+0  63934-3 0  9996
2 58320  97.3874 150.1442 0008030 153.8049 206.3607 15.44709726129467
FLOCK 4Q-9              
1 58322U 23174BU  26063.18826451  .00037584  00000+0  81396-3 0  9995
2 58322  97.3912 149.5477 0008024 156.6077 203.5538 15.44319980129356
FLOCK 4Q-4              
1 58327U 23174BZ  26063.18847949  .00036078  00000+0  79133-3 0  9998
2 58327  97.3867 148.9274 0007475 174.0440 186.0899 15.43956065129338
FLOCK 4Q-13             
1 58328U 23174CA  26063.23232832  .00044824  00000+0  89734-3 0  9990
2 58328  97.4029 151.3570 0007514 168.7674 191.3745 15.46596954129429
FLOCK 4Q-21             
1 58329U 23174CB  26063.24176274  .00070717  00000+0  98173-3 0  9996
2 58329  97.3944 154.3687 0005851 174.6962 185.4356 15.56778475129642
FLOCK 4BE-18            
1 60480U 24149N   26063.21282579  .00030366  00000+0  81195-3 0  9995
2 60480  97.3786 146.1122 0003064 266.7483  93.3412 15.38010814 86159
FLOCK 4BE-7             
1 60481U 24149P   26063.67619369  .00021788  00000+0  62144-3 0  9998
2 60481  97.3816 146.1784 0002037 254.4192 105.6827 15.36070769 86181
FLOCK 4BE-26            
1 60484U 24149S   26063.63524779  .00118235  00000+0  26313-2 0  9998
2 60484  97.3774 146.4190 0005891 255.8968 104.1625 15.43171084 86212
FLOCK 4BE-36            
1 60486U 24149U   26063.63513375  .00029215  00000+0  75933-3 0  9992
2 60486  97.3794 147.0753 0002787 276.7274  83.3654 15.38894405 86258
FLOCK 4BE-25            
1 60487U 24149V   26063.16796001  .00023594  00000+0  67879-3 0  9994
2 60487  97.3853 145.8175 0001237 244.2774 115.8342 15.35785137 86100
FLOCK 4BE-31            
1 60488U 24149W   26063.47669657  .00035339  00000+0  89458-3 0  9992
2 60488  97.3849 147.5286 0001703 271.1243  88.9808 15.39666763 86245
FLOCK 4BE-20            
1 60489U 24149X   26063.20876042  .00022075  00000+0  64989-3 0  9997
2 60489  97.3760 145.0005 0002436 271.4243  88.6721 15.35071237 86093
FLOCK 4BE-23            
1 60490U 24149Y   26063.63058545  .00020707  00000+0  61656-3 0  9994
2 60490  97.3837 145.7415 0002064 281.5670  78.5341 15.34727117 86141
FLOCK 4BE-15            
1 60491U 24149Z   26063.18656732  .00110485  00000+0  27919-2 0  9993
2 60491  97.3776 146.3134 0002889 327.6143  32.4925 15.39370368 86178
FLOCK 4BE-17            
1 60492U 24149AA  26063.22427366  .00025530  00000+0  71949-3 0  9997
2 60492  97.3834 146.0010 0002053 259.7334 100.3679 15.36413983 86128
